[{"OBJECT_NAME":"YAOGAN-30 10A","OBJECT_ID":"2021-055A","EPOCH":"2026-03-09T23:48:28.291104","MEAN_MOTION":15.02193247,"ECCENTRICITY":0.0004983,"INCLINATION":34.9965,"RA_OF_ASC_NODE":36.5937,"ARG_OF_PERICENTER":279.793,"MEAN_ANOMALY":80.2215,"EPHEMERIS_TYPE":0,"CLASSIFICATION_TYPE":"U","NORAD_CAT_ID":48860,"ELEMENT_SET_NO":999,"REV_AT_EPOCH":25825,"BSTAR":0.00036861198,"MEAN_MOTION_DOT":4.929e-5,"MEAN_MOTION_DDOT":0},{"OBJECT_NAME":"COSMOS 2251 DEB","OBJECT_ID":"1993-036AXJ","EPOCH":"2026-03-07T16:14:39.475392","MEAN_MOTION":15.02350149,"ECCENTRICITY":0.00052276,"INCLINATION":74.0329,"RA_OF_ASC_NODE":161.7612,"ARG_OF_PERICENTER":248.7206,"MEAN_ANOMALY":111.3424,"EPHEMERIS_TYPE":0,"CLASSIFICATION_TYPE":"U","NORAD_CAT_ID":36047,"ELEMENT_SET_NO":999,"REV_AT_EPOCH":67212,"BSTAR":0.0041103158,"MEAN_MOTION_DOT":0.00054783,"MEAN_MOTION_DDOT":0}]
